IRIDIUM 112             
1 41925U 17003J   25232.91960997 -.00000076  00000+0 -34062-4 0  9999
2 41925  86.3973 213.7134 0002152  84.7981 275.3460 14.34216763450235
IRIDIUM 111             
1 41926U 17003K   25232.90692149  .00000109  00000+0  31871-4 0  9990
2 41926  86.3972 213.7824 0002249  91.7661 268.3792 14.34218534450217
IRIDIUM 113             
1 42803U 17039A   25232.88688666  .00000001  00000+0 -68159-5 0  9992
2 42803  86.3922  87.7110 0001915  82.0250 278.1163 14.34216594428142
IRIDIUM 123             
1 42804U 17039B   25232.92836720  .00000024  00000+0  16036-5 0  9995
2 42804  86.3974 119.1837 0002045  94.4841 265.6588 14.34217662426916
IRIDIUM 120             
1 42805U 17039C   25232.67124005  .00000139  00000+0  42417-4 0  9992
2 42805  86.3911  87.6227 0002358  92.6646 267.4820 14.34218476428106
IRIDIUM 115             
1 42806U 17039D   25232.63871221  .00000297  00000+0  82223-4 0  9992
2 42806  86.4451  87.7246 0002181 108.4962 251.6476 14.43276550430911
IRIDIUM 118             
1 42807U 17039E   25232.75077331  .00000078  00000+0  20950-4 0  9992
2 42807  86.3970 119.2572 0002054  80.3664 279.7764 14.34217180426882
IRIDIUM 117             
1 42808U 17039F   25232.76980217  .00000020  00000+0 -26440-7 0  9991
2 42808  86.3970 119.2094 0001843  89.7518 270.3889 14.34217628426914
